CCSDS_OMM_VERS,COMMENT,CREATION_DATE,ORIGINATOR,OBJECT_NAME,OBJECT_ID,CENTER_NAME,REF_FRAME,TIME_SYSTEM,MEAN_ELEMENT_THEORY,EPOCH,MEAN_MOTION,ECCENTRICITY,INCLINATION,RA_OF_ASC_NODE,ARG_OF_PERICENTER,MEAN_ANOMALY,EPHEMERIS_TYPE,CLASSIFICATION_TYPE,NORAD_CAT_ID,ELEMENT_SET_NO,REV_AT_EPOCH,BSTAR,MEAN_MOTION_DOT,MEAN_MOTION_DDOT,SEMIMAJOR_AXIS,PERIOD,APOAPSIS,PERIAPSIS,OBJECT_TYPE,RCS_SIZE,COUNTRY_CODE,LAUNCH_DATE,SITE,DECAY_DATE,FILE,GP_ID,TLE_LINE0,TLE_LINE1,TLE_LINE2
"2.0","GENERATED VIA SPACE-TRACK.ORG API","2019-08-10T21:20:11","18 SPCS","AEOLUS","2018-066A","EARTH","TEME","UTC","SGP4","2019-08-10T14:20:03.271776","15.86707901","0.00043610","96.7191","228.6439","95.8272","29.6333","0","U","43600","999","5591","0.00002350200000","0.00005811","0.0000000000000","6689.657","90.753","314.439","308.604","PAYLOAD","LARGE","ESA","2018-08-22","FRGUI","","2534411","136662147","0 AEOLUS","1 43600U 18066A   19222.59726009  .00005811  00000-0  23502-4 0  9999","2 43600  96.7191 228.6439 0004361  95.8272  29.6333 15.86707901 55919"
"2.0","GENERATED VIA SPACE-TRACK.ORG API","2019-08-11T21:40:19","18 SPCS","AEOLUS","2018-066A","EARTH","TEME","UTC","SGP4","2019-08-11T14:32:19.488768","15.86759976","0.00036650","96.7181","229.6381","95.3206","27.1380","0","U","43600","999","5607","0.00007235700000","0.00018242","0.0000000000000","6689.510","90.750","313.827","308.923","PAYLOAD","LARGE","ESA","2018-08-22","FRGUI","","2534762","136725461","0 AEOLUS","1 43600U 18066A   19223.60578112  .00018242  00000-0  72357-4 0  9996","2 43600  96.7181 229.6381 0003665  95.3206  27.1380 15.86759976 56075"
"2.0","GENERATED VIA SPACE-TRACK.ORG API","2019-08-12T06:30:13","18 SPCS","AEOLUS","2018-066A","EARTH","TEME","UTC","SGP4","2019-08-11T23:20:56.298912","15.86775339","0.00036670","96.7185","229.9995","93.8728","324.1170","0","U","43600","999","5613","0.00007408800000","0.00018696","0.0000000000000","6689.467","90.750","313.785","308.879","PAYLOAD","LARGE","ESA","2018-08-22","FRGUI","","2534907","136745820","0 AEOLUS","1 43600U 18066A   19223.97287383  .00018696  00000-0  74088-4 0  9999","2 43600  96.7185 229.9995 0003667  93.8728 324.1170 15.86775339 56132"
"2.0","GENERATED VIA SPACE-TRACK.ORG API","2019-08-12T22:30:18","18 SPCS","STARLINK","2019-029AC","EARTH","TEME","UTC","SGP4","2019-08-12T04:18:29.754720","15.05486229","0.00006630","53.0011","172.6608","48.5334","311.5710","0","U","44261","999","1222","0.00000082307000","-0.00000267","0.0000000000000","6928.150","95.650","550.474","549.556","PAYLOAD","LARGE","US","2019-05-24","AFETR","","2535158","136788168","0 STARLINK","1 44261U 19029AC  19224.17951105 -.00000267  00000-0  82307-6 0  9997","2 44261  53.0011 172.6608 0000663  48.5334 311.5710 15.05486229 12228"
"2.0","GENERATED VIA SPACE-TRACK.ORG API","2019-08-13T01:00:20","18 SPCS","AEOLUS","2018-066A","EARTH","TEME","UTC","SGP4","2019-08-12T23:32:49.649280","15.86812799","0.00038630","96.7199","230.9925","94.7170","318.9354","0","U","43600","999","5629","0.00007414300000","0.00018746","0.0000000000000","6689.362","90.747","313.811","308.643","PAYLOAD","LARGE","ESA","2018-08-22","FRGUI","","2535699","136801466","0 AEOLUS","1 43600U 18066A   19224.98113020  .00018746  00000-0  74143-4 0  9995","2 43600  96.7199 230.9925 0003863  94.7170 318.9354 15.86812799 56295"
"2.0","GENERATED VIA SPACE-TRACK.ORG API","2019-08-13T14:30:14","18 SPCS","STARLINK","2019-029AC","EARTH","TEME","UTC","SGP4","2019-08-13T05:48:02.896416","15.05485043","0.00008100","53.0010","167.8916","46.0260","314.0795","0","U","44261","999","1238","-0.00000250870000","-0.00000315","0.0000000000000","6928.154","95.650","550.580","549.458","PAYLOAD","LARGE","US","2019-05-24","AFETR","","2535877","136804641","0 STARLINK","1 44261U 19029AC  19225.24170019 -.00000315  00000-0 -25087-5 0  9999","2 44261  53.0010 167.8916 0000810  46.0260 314.0795 15.05485043 12381"
"2.0","GENERATED VIA SPACE-TRACK.ORG API","2019-08-13T15:00:16","18 SPCS","AEOLUS","2018-066A","EARTH","TEME","UTC","SGP4","2019-08-13T11:57:51.186240","15.86829288","0.00036150","96.7202","231.5028","93.7716","33.4002","0","U","43600","999","5637","0.00007109300000","0.00017981","0.0000000000000","6689.315","90.747","313.599","308.762","PAYLOAD","LARGE","ESA","2018-08-22","FRGUI","","2535999","136807591","0 AEOLUS","1 43600U 18066A   19225.49850910  .00017981  00000-0  71093-4 0  9999","2 43600  96.7202 231.5028 0003615  93.7716  33.4002 15.86829288 56370"
"2.0","GENERATED VIA SPACE-TRACK.ORG API","2019-08-13T22:40:14","18 SPCS","AEOLUS","2018-066A","EARTH","TEME","UTC","SGP4","2019-08-13T12:05:08.329632","15.86829260","0.00035800","96.7200","231.5076","93.1725","62.8814","0","U","43600","999","5637","0.00007089200000","0.00017929","0.0000000000000","6689.315","90.747","313.575","308.786","PAYLOAD","LARGE","ESA","2018-08-22","FRGUI","","2536161","136829762","0 AEOLUS","1 43600U 18066A   19225.50356863  .00017929  00000-0  70892-4 0  9997","2 43600  96.7200 231.5076 0003580  93.1725  62.8814 15.86829260 56373"
"2.0","GENERATED VIA SPACE-TRACK.ORG API","2019-08-14T04:53:41","18 SPCS","STARLINK","2019-029AC","EARTH","TEME","UTC","SGP4","2019-08-13T20:08:25.257408","15.05485053","0.00007630","53.0010","165.2091","48.6391","311.4663","0","U","44261","999","1153","-0.00000384270000","-0.00000335","0.0000000000000","6928.154","95.650","550.547","549.490","PAYLOAD","LARGE","US","2019-05-24","AFETR","","2536219","136848634","0 STARLINK","1 44261U 19029AC  19225.83918122 -.00000335 +00000-0 -38427-5 0  9993","2 44261 053.0010 165.2091 0000763 048.6391 311.4663 15.05485053011539"
"2.0","GENERATED VIA SPACE-TRACK.ORG API","2019-08-14T07:10:13","18 SPCS","AEOLUS","2018-066A","EARTH","TEME","UTC","SGP4","2019-08-13T23:45:54.104256","15.86841541","0.00037690","96.7177","231.9884","92.9647","321.1603","0","U","43600","999","5645","0.00006556900000","0.00016581","0.0000000000000","6689.281","90.746","313.667","308.625","PAYLOAD","LARGE","ESA","2018-08-22","FRGUI","","2536400","136853025","0 AEOLUS","1 43600U 18066A   19225.99020954  .00016581  00000-0  65569-4 0  9997","2 43600  96.7177 231.9884 0003769  92.9647 321.1603 15.86841541 56458"
"2.0","GENERATED VIA SPACE-TRACK.ORG API","2019-08-14T14:30:17","18 SPCS","STARLINK","2019-029AC","EARTH","TEME","UTC","SGP4","2019-08-14T10:28:47.516448","15.05487092","0.00007690","53.0008","162.5302","58.1081","301.9981","0","U","44261","999","1256","-0.00000387330000","-0.00000335","0.0000000000000","6928.147","95.650","550.545","549.480","PAYLOAD","LARGE","US","2019-05-24","AFETR","","2536473","136853776","0 STARLINK","1 44261U 19029AC  19226.43666107 -.00000335  00000-0 -38733-5 0  9993","2 44261  53.0008 162.5302 0000769  58.1081 301.9981 15.05487092 12565"
"2.0","GENERATED VIA SPACE-TRACK.ORG API","2019-08-14T14:50:15","18 SPCS","AEOLUS","2018-066A","EARTH","TEME","UTC","SGP4","2019-08-14T12:18:26.369280","15.86859425","0.00037260","96.7176","232.5034","89.5800","67.9048","0","U","43600","999","5653","0.00006607500000","0.00016725","0.0000000000000","6689.231","90.745","313.588","308.603","PAYLOAD","LARGE","ESA","2018-08-22","FRGUI","","2536582","136856505","0 AEOLUS","1 43600U 18066A   19226.51280520  .00016725  00000-0  66075-4 0  9996","2 43600  96.7176 232.5034 0003726  89.5800  67.9048 15.86859425 56534"
"2.0","GENERATED VIA SPACE-TRACK.ORG API","2019-08-14T23:10:17","18 SPCS","AEOLUS","2018-066A","EARTH","TEME","UTC","SGP4","2019-08-14T13:39:53.829792","15.86860466","0.00037760","96.7185","232.5594","90.2591","30.1561","0","U","43600","999","5654","0.00006532600000","0.00016534","0.0000000000000","6689.228","90.745","313.619","308.567","PAYLOAD","LARGE","ESA","2018-08-22","FRGUI","","2536891","136882245","0 AEOLUS","1 43600U 18066A   19226.56937303  .00016534  00000-0  65326-4 0  9995","2 43600  96.7185 232.5594 0003776  90.2591  30.1561 15.86860466 56546"
"2.0","GENERATED VIA SPACE-TRACK.ORG API","2019-08-15T04:35:07","18 SPCS","AEOLUS","2018-066A","EARTH","TEME","UTC","SGP4","2019-08-14T22:29:19.665888","15.86872702","0.00037940","96.7176","232.9209","89.5224","329.7910","0","U","43600","999","5660","0.00006464800000","0.00016371","0.0000000000000","6689.193","90.744","313.596","308.520","PAYLOAD","LARGE","ESA","2018-08-22","FRGUI","","2536955","136901327","0 AEOLUS","1 43600U 18066A   19226.93703317 +.00016371 +00000-0 +64648-4 0  9997","2 43600 096.7176 232.9209 0003794 089.5224 329.7910 15.86872702056605"
"2.0","GENERATED VIA SPACE-TRACK.ORG API","2019-08-15T07:10:15","18 SPCS","AEOLUS","2018-066A","EARTH","TEME","UTC","SGP4","2019-08-14T23:59:12.697728","15.86875969","0.00037750","96.7174","232.9825","88.6137","327.0443","0","U","43600","999","5661","0.00006570000000","0.00016643","0.0000000000000","6689.184","90.744","313.574","308.524","PAYLOAD","LARGE","ESA","2018-08-22","FRGUI","","2537181","136907508","0 AEOLUS","1 43600U 18066A   19226.99945252  .00016643  00000-0  65700-4 0  9991","2 43600  96.7174 232.9825 0003775  88.6137 327.0443 15.86875969 56610"
"2.0","GENERATED VIA SPACE-TRACK.ORG API","2019-08-16T04:35:54","18 SPCS","STARLINK","2019-029AC","EARTH","TEME","UTC","SGP4","2019-08-15T04:00:21.396384","15.05489073","0.00008200","53.0005","159.2517","56.7712","303.3354","0","U","44261","999","1173","-0.00000219370000","-0.00000311","0.0000000000000","6928.141","95.649","550.574","549.438","PAYLOAD","LARGE","US","2019-05-24","AFETR","","2538941","137000729","0 STARLINK","1 44261U 19029AC  19227.16691431 -.00000311 +00000-0 -21937-5 0  9994","2 44261 053.0005 159.2517 0000820 056.7712 303.3354 15.05489073011735"
